STARLINK-31547          
1 59364U 24060S   26068.55542380 -.00000157  00000+0  38318-5 0  9994
2 59364  43.0032 249.2555 0001191 266.1269  93.9446 15.27570970110175
FLOCK 4G-7              
1 62624U 25009R   26068.79996108  .00011422  00000+0  43168-3 0  9991
2 62624  97.3984 150.8270 0001396 336.9783  23.1393 15.27141471 63725
